NORAD_CAT_ID,OBJECT_NAME,OBJECT_TYPE,EPOCH,MEAN_MOTION,ECCENTRICITY,INCLINATION,RA_OF_ASC_NODE,ARG_OF_PERICENTER,MEAN_ANOMALY,BSTAR,MEAN_MOTION_DOT,MEAN_MOTION_DDOT,TLE_LINE0,TLE_LINE1,TLE_LINE2,SEMIMAJOR_AXIS,PERIOD,APOGEE,PERIGEE,DECAYED
51958.0,STARLINK-3692,PAYLOAD,2024-03-23 18:15:04,15.08033176,0.0001232,53.0572,359.6086,111.1411,248.971,5.316e-05,5.42e-06,0.0,0 STARLINK-3692,1 51958U 22025C   24083.76046987  .00000542  00000-0  53160-4 0  9993,2 51958  53.0572 359.6086 0001232 111.1411 248.9710 15.08033176114176,6920.348,95.489,543.065,541.36,0.0
51958.0,STARLINK-3692,PAYLOAD,2024-03-24 03:47:41,15.08059237,0.0001674,53.0544,357.8178,76.5558,283.5618,0.0009813,0.00015036,0.0,0 STARLINK-3692,1 51958U 22025C   24084.15811503  .00015036  00000-0  98130-3 0  9990,2 51958  53.0544 357.8178 0001674  76.5558 283.5618 15.08059237114238,6920.268,95.487,543.291,540.974,0.0
51958.0,STARLINK-3692,PAYLOAD,2024-03-24 11:44:52,15.080378,0.0001903,53.0569,356.3272,84.6089,275.5118,0.00069391,0.00010536,0.0,0 STARLINK-3692,1 51958U 22025C   24084.48949410  .00010536  00000-0  69391-3 0  9992,2 51958  53.0569 356.3272 0001903  84.6089 275.5118 15.08037800114281,6920.333,95.488,543.515,540.882,0.0
51958.0,STARLINK-3692,PAYLOAD,2024-03-24 22:52:55,15.08052707,0.0001884,53.057,354.2408,84.8313,275.2891,0.0015607,0.0002411,0.0,0 STARLINK-3692,1 51958U 22025C   24084.95341714  .00024110  00000-0  15607-2 0  9990,2 51958  53.0570 354.2408 0001884  84.8313 275.2891 15.08052707113266,6920.288,95.487,543.457,540.849,0.0
51958.0,STARLINK-3692,PAYLOAD,2024-03-25 03:39:13,15.08066144,0.0001528,53.0551,353.3432,82.6234,277.4929,0.0014825,0.00022892,0.0,0 STARLINK-3692,1 51958U 22025C   24085.15223496  .00022892  00000-0  14825-2 0  9995,2 51958  53.0551 353.3432 0001528  82.6234 277.4929 15.08066144114385,6920.247,95.487,543.169,541.054,0.0
51958.0,STARLINK-3692,PAYLOAD,2024-03-25 21:09:02,15.08006753,0.0001252,53.0565,350.0613,110.6725,249.4399,0.00012539,1.666e-05,0.0,0 STARLINK-3692,1 51958U 22025C   24085.88128089  .00001666  00000-0  12539-3 0  9994,2 51958  53.0565 350.0613 0001252 110.6725 249.4399 15.08006753114498,6920.428,95.49,543.16,541.427,0.0
51958.0,STARLINK-3692,PAYLOAD,2024-03-25 22:44:28,15.080095,0.000134,53.056,349.763,119.4561,240.6563,0.00026938,3.908e-05,0.0,0 STARLINK-3692,1 51958U 22025C   24085.94755646  .00003908  00000-0  26938-3 0  9995,2 51958  53.0560 349.7630 0001340 119.4561 240.6563 15.08009500113410,6920.42,95.49,543.212,541.358,0.0
51958.0,STARLINK-3692,PAYLOAD,2024-03-26 03:30:48,15.08006615,0.000119,53.0564,348.8702,74.5518,285.5603,0.00063159,9.554e-05,0.0,0 STARLINK-3692,1 51958U 22025C   24086.14638915  .00009554  00000-0  63159-3 0  9996,2 51958  53.0564 348.8702 0001190  74.5518 285.5603 15.08006615113440,6920.429,95.49,543.117,541.47,0.0
51958.0,STARLINK-3692,PAYLOAD,2024-03-26 21:00:35,15.08047596,0.0001211,53.0566,345.5901,108.7918,251.3203,0.0015337,0.00023683,0.0,0 STARLINK-3692,1 51958U 22025C   24086.87540672  .00023683  00000-0  15337-2 0  9991,2 51958  53.0566 345.5901 0001211 108.7918 251.3203 15.08047596114648,6920.304,95.488,543.007,541.33,0.0
51958.0,STARLINK-3692,PAYLOAD,2024-03-26 22:36:00,15.08073495,0.0002339,53.0572,345.2922,139.1602,220.9563,0.0021878,0.0003398,0.0,0 STARLINK-3692,1 51958U 22025C   24086.94167604  .00033980  00000-0  21878-2 0  9997,2 51958  53.0572 345.2922 0002339 139.1602 220.9563 15.08073495113563,6920.224,95.486,543.708,540.471,0.0
51958.0,STARLINK-3692,PAYLOAD,2024-03-27 00:11:27,15.08080156,0.0001067,53.0569,344.9931,105.6356,254.4752,0.0025418,0.00039562,0.0,0 STARLINK-3692,1 51958U 22025C   24087.00795203  .00039562  00000-0  25418-2 0  9993,2 51958  53.0569 344.9931 0001067 105.6356 254.4752 15.08080156114662,6920.204,95.486,542.807,541.331,0.0
51958.0,STARLINK-3692,PAYLOAD,2024-03-27 09:44:03,15.08074615,0.0001169,53.0557,343.2039,98.3665,261.7457,0.0006958,0.00010576,0.0,0 STARLINK-3692,1 51958U 22025C   24087.40559155  .00010576  00000-0  69580-3 0  9994,2 51958  53.0557 343.2039 0001169  98.3665 261.7457 15.08074615114727,6920.221,95.486,542.895,541.277,0.0
51958.0,STARLINK-3692,PAYLOAD,2024-03-27 22:27:33,15.08004691,0.0001281,53.0552,340.8188,75.0392,285.0739,0.00048581,7.28e-05,0.0,0 STARLINK-3692,1 51958U 22025C   24087.93580390  .00007280  00000-0  48581-3 0  9993,2 51958  53.0552 340.8188 0001281  75.0392 285.0739 15.08004691113711,6920.435,95.49,543.186,541.413,0.0
51958.0,STARLINK-3692,PAYLOAD,2024-03-28 03:13:51,15.08026157,0.000133,53.0558,339.9224,83.1451,276.969,-0.0001304,-2.315e-05,0.0,0 STARLINK-3692,1 51958U 22025C   24088.13462731 -.00002315  00000-0 -13040-3 0  9992,2 51958  53.0558 339.9224 0001330  83.1451 276.9690 15.08026157114838,6920.369,95.489,543.155,541.314,0.0
51958.0,STARLINK-3692,PAYLOAD,2024-03-28 09:35:36,15.08024411,0.0001502,53.0561,338.7295,78.006,282.1098,0.0013197,0.00020316,0.0,0 STARLINK-3692,1 51958U 22025C   24088.39973344  .00020316  00000-0  13197-2 0  9998,2 51958  53.0561 338.7295 0001502  78.0060 282.1098 15.08024411113782,6920.374,95.489,543.279,541.2,0.0
51958.0,STARLINK-3692,PAYLOAD,2024-03-28 22:19:06,15.08036811,0.0001593,53.0569,336.3444,81.8502,278.2668,0.0010149,0.00015553,0.0,0 STARLINK-3692,1 51958U 22025C   24088.92993397  .00015553  00000-0  10149-2 0  9998,2 51958  53.0569 336.3444 0001593  81.8502 278.2668 15.08036811113868,6920.337,95.488,543.304,541.099,0.0
51958.0,STARLINK-3692,PAYLOAD,2024-03-29 09:27:09,15.08040952,0.000127,53.0559,334.2572,95.0088,265.1046,0.0006988,0.00010613,0.0,0 STARLINK-3692,1 51958U 22025C   24089.39385580  .00010613  00000-0  69880-3 0  9998,2 51958  53.0559 334.2572 0001270  95.0088 265.1046 15.08040952115020,6920.324,95.488,543.068,541.31,0.0
51958.0,STARLINK-3692,PAYLOAD,2024-03-29 22:10:38,15.08042016,0.0001301,53.0555,331.8705,94.8174,265.2964,0.00042794,6.385e-05,0.0,0 STARLINK-3692,1 51958U 22025C   24089.92405292  .00006385  00000-0  42794-3 0  9996,2 51958  53.0555 331.8705 0001301  94.8174 265.2964 15.08042016114016,6920.321,95.488,543.086,541.285,0.0
51958.0,STARLINK-3692,PAYLOAD,2024-03-30 09:18:41,15.08033254,0.0001419,53.0555,329.7829,88.0991,272.0161,0.00010977,1.424e-05,0.0,0 STARLINK-3692,1 51958U 22025C   24090.38797948  .00001424  00000-0  10977-3 0  9997,2 51958  53.0555 329.7829 0001419  88.0991 272.0161 15.08033254115178,6920.347,95.489,543.194,541.23,0.0
51958.0,STARLINK-3692,PAYLOAD,2024-03-30 22:02:10,15.08033644,0.000132,53.0554,327.3971,90.8788,269.2352,0.00020003,2.83e-05,0.0,0 STARLINK-3692,1 51958U 22025C   24090.91818149  .00002830  00000-0  20003-3 0  9996,2 51958  53.0554 327.3971 0001320  90.8788 269.2352 15.08033644114166,6920.346,95.489,543.125,541.298,0.0
51958.0,STARLINK-3692,PAYLOAD,2024-03-31 09:10:13,15.08040773,0.0001416,53.0558,325.3083,94.298,265.8171,0.00040885,6.087e-05,0.0,0 STARLINK-3692,1 51958U 22025C   24091.38210440  .00006087  00000-0  40885-3 0  9996,2 51958  53.0558 325.3083 0001416  94.2980 265.8171 15.08040773114230,6920.324,95.488,543.169,541.209,0.0
51958.0,STARLINK-3692,PAYLOAD,2024-03-31 21:53:42,15.08047012,0.0001391,53.0554,322.921,98.0583,262.0565,0.00049877,7.491e-05,0.0,0 STARLINK-3692,1 51958U 22025C   24091.91229958  .00007491  00000-0  49877-3 0  9999,2 51958  53.0554 322.9210 0001391  98.0583 262.0565 15.08047012115403,6920.305,95.488,543.133,541.208,0.0
51958.0,STARLINK-3692,PAYLOAD,2024-04-01 15:23:30,15.08046047,0.0001402,53.055,319.6398,90.7832,269.3318,0.00035499,5.247e-05,0.0,0 STARLINK-3692,1 51958U 22025C   24092.64132089  .00005247  00000-0  35499-3 0  9990,2 51958  53.0550 319.6398 0001402  90.7832 269.3318 15.08046047114422,6920.308,95.488,543.143,541.203,0.0
51958.0,STARLINK-3692,PAYLOAD,2024-04-01 21:45:14,15.08044798,0.0001232,53.055,318.447,74.3499,285.7627,0.00037227,5.517e-05,0.0,0 STARLINK-3692,1 51958U 22025C   24092.90641916  .00005517  00000-0  37227-3 0  9994,2 51958  53.0550 318.4470 0001232  74.3499 285.7627 15.08044798115559,6920.312,95.488,543.03,541.324,0.0
51958.0,STARLINK-3692,PAYLOAD,2024-04-02 00:56:06,15.08047333,0.0001316,53.0554,317.8505,76.2331,283.8805,0.0004823,7.234e-05,0.0,0 STARLINK-3692,1 51958U 22025C   24093.03896788  .00007234  00000-0  48230-3 0  9992,2 51958  53.0554 317.8505 0001316  76.2331 283.8805 15.08047333114480,6920.304,95.488,543.08,541.259,0.0
51958.0,STARLINK-3692,PAYLOAD,2024-04-02 21:36:47,15.08021267,0.0001182,53.0563,313.973,77.5101,282.6021,0.00041235,6.138e-05,0.0,0 STARLINK-3692,1 51958U 22025C   24093.90055284  .00006138  00000-0  41235-3 0  9996,2 51958  53.0563 313.9730 0001182  77.5101 282.6021 15.08021267115708,6920.384,95.489,543.067,541.431,0.0
51958.0,STARLINK-3692,PAYLOAD,2024-04-03 15:06:35,15.08027685,0.0001232,53.0548,310.6926,82.3972,277.7157,0.00035034,5.172e-05,0.0,0 STARLINK-3692,1 51958U 22025C   24094.62958049  .00005172  00000-0  35034-3 0  9994,2 51958  53.0548 310.6926 0001232  82.3972 277.7157 15.08027685114724,6920.364,95.489,543.082,541.377,0.0
51958.0,STARLINK-3692,PAYLOAD,2024-04-03 21:28:20,15.08034945,0.0001236,53.0546,309.5008,88.1103,272.0029,0.00056753,8.562e-05,0.0,0 STARLINK-3692,1 51958U 22025C   24094.89467943  .00008562  00000-0  56753-3 0  9998,2 51958  53.0546 309.5008 0001236  88.1103 272.0029 15.08034945114761,6920.342,95.489,543.063,541.352,0.0
51958.0,STARLINK-3692,PAYLOAD,2024-04-04 07:00:57,15.08035609,0.0001185,53.0539,307.7115,88.4808,271.6318,0.0003802,5.639e-05,0.0,0 STARLINK-3692,1 51958U 22025C   24095.29232843  .00005639  00000-0  38020-3 0  9991,2 51958  53.0539 307.7115 0001185  88.4808 271.6318 15.08035609115912,6920.34,95.488,543.025,541.385,0.0
51958.0,STARLINK-3692,PAYLOAD,2024-04-04 19:44:26,15.08029093,0.0001291,53.0545,305.3257,89.5638,270.55,0.00013449,1.808e-05,0.0,0 STARLINK-3692,1 51958U 22025C   24095.82253110  .00001808  00000-0  13449-3 0  9992,2 51958  53.0545 305.3257 0001291  89.5638 270.5500 15.08029093115990,6920.36,95.489,543.119,541.332,0.0
